ONEWEB-0403             
1 50483U 21132Q   24151.88504828  .00000008  00000+0 -12879-4 0  9994
2 50483  87.9126 124.2242 0001852  88.0455 272.0889 13.18686533123105
ONEWEB-0405             
1 50485U 21132S   24151.90084189  .00000038  00000+0  62806-4 0  9999
2 50485  87.9126 124.2102 0002037 100.3949 259.7413 13.18687921123505
ONEWEB-0407             
1 50487U 21132U   24151.88346192  .00000038  00000+0  64779-4 0  9994
2 50487  87.9123 124.2275 0001985  89.6773 270.4587 13.18687416123073
ONEWEB-0409             
1 50488U 21132V   24152.07922656 -.00000506  00000+0 -14640-2 0  9994
2 50488  87.8958 169.7079 0001597  74.4566 285.6738 13.11415542118944
ONEWEB-0413             
1 50490U 21132X   24151.87714217  .00000057  00000+0  11178-3 0  9999
2 50490  87.9129 124.2404 0002224  97.0650 263.0735 13.18684573123109
